<?xml version="1.0" encoding="UTF-8"?>
<ndm xmlns:xsi="http://www.w3.org/2001/XMLSchema-instance" xsi:noNamespaceSchemaLocation="https://sanaregistry.org/r/ndmxml_unqualified/ndmxml-2.0.0-master-2.0.xsd">
<omm id="CCSDS_OMM_VERS" version="2.0">
<header><CREATION_DATE/><ORIGINATOR/></header><body><segment><metadata><OBJECT_NAME>ORBCOMM FM24 [-]</OBJECT_NAME><OBJECT_ID>1998-053D</OBJECT_ID><CENTER_NAME>EARTH</CENTER_NAME><REF_FRAME>TEME</REF_FRAME><TIME_SYSTEM>UTC</TIME_SYSTEM><MEAN_ELEMENT_THEORY>SGP4</MEAN_ELEMENT_THEORY></metadata><data><meanElements><EPOCH>2023-09-23T03:15:15.610176</EPOCH><MEAN_MOTION>14.34654387</MEAN_MOTION><ECCENTRICITY>.0001906</ECCENTRICITY><INCLINATION>45.0101</INCLINATION><RA_OF_ASC_NODE>21.8492</RA_OF_ASC_NODE><ARG_OF_PERICENTER>243.1600</ARG_OF_PERICENTER><MEAN_ANOMALY>116.9052</MEAN_ANOMALY></meanElements><tleParameters><EPHEMERIS_TYPE>0</EPHEMERIS_TYPE><CLASSIFICATION_TYPE>U</CLASSIFICATION_TYPE><NORAD_CAT_ID>25478</NORAD_CAT_ID><ELEMENT_SET_NO>999</ELEMENT_SET_NO><REV_AT_EPOCH>30671</REV_AT_EPOCH><BSTAR>.75183E-3</BSTAR><MEAN_MOTION_DOT>.2005E-4</MEAN_MOTION_DOT><MEAN_MOTION_DDOT>0</MEAN_MOTION_DDOT></tleParameters></data></segment></body></omm>
<omm id="CCSDS_OMM_VERS" version="2.0">
<header><CREATION_DATE/><ORIGINATOR/></header><body><segment><metadata><OBJECT_NAME>ORBCOMM FM25 [-]</OBJECT_NAME><OBJECT_ID>1998-053E</OBJECT_ID><CENTER_NAME>EARTH</CENTER_NAME><REF_FRAME>TEME</REF_FRAME><TIME_SYSTEM>UTC</TIME_SYSTEM><MEAN_ELEMENT_THEORY>SGP4</MEAN_ELEMENT_THEORY></metadata><data><meanElements><EPOCH>2023-09-23T00:42:32.430528</EPOCH><MEAN_MOTION>14.34642589</MEAN_MOTION><ECCENTRICITY>.0003482</ECCENTRICITY><INCLINATION>45.0093</INCLINATION><RA_OF_ASC_NODE>20.5813</RA_OF_ASC_NODE><ARG_OF_PERICENTER>292.2849</ARG_OF_PERICENTER><MEAN_ANOMALY>67.7628</MEAN_ANOMALY></meanElements><tleParameters><EPHEMERIS_TYPE>0</EPHEMERIS_TYPE><CLASSIFICATION_TYPE>U</CLASSIFICATION_TYPE><NORAD_CAT_ID>25479</NORAD_CAT_ID><ELEMENT_SET_NO>999</ELEMENT_SET_NO><REV_AT_EPOCH>30671</REV_AT_EPOCH><BSTAR>.71481E-3</BSTAR><MEAN_MOTION_DOT>.1899E-4</MEAN_MOTION_DOT><MEAN_MOTION_DDOT>0</MEAN_MOTION_DDOT></tleParameters></data></segment></body></omm>
<omm id="CCSDS_OMM_VERS" version="2.0">
<header><CREATION_DATE/><ORIGINATOR/></header><body><segment><metadata><OBJECT_NAME>ORBCOMM FM26 [-]</OBJECT_NAME><OBJECT_ID>1998-053F</OBJECT_ID><CENTER_NAME>EARTH</CENTER_NAME><REF_FRAME>TEME</REF_FRAME><TIME_SYSTEM>UTC</TIME_SYSTEM><MEAN_ELEMENT_THEORY>SGP4</MEAN_ELEMENT_THEORY></metadata><data><meanElements><EPOCH>2023-09-22T16:19:01.171488</EPOCH><MEAN_MOTION>14.34230223</MEAN_MOTION><ECCENTRICITY>.0004874</ECCENTRICITY><INCLINATION>45.0093</INCLINATION><RA_OF_ASC_NODE>15.5050</RA_OF_ASC_NODE><ARG_OF_PERICENTER>324.8821</ARG_OF_PERICENTER><MEAN_ANOMALY>35.1704</MEAN_ANOMALY></meanElements><tleParameters><EPHEMERIS_TYPE>0</EPHEMERIS_TYPE><CLASSIFICATION_TYPE>U</CLASSIFICATION_TYPE><NORAD_CAT_ID>25480</NORAD_CAT_ID><ELEMENT_SET_NO>999</ELEMENT_SET_NO><REV_AT_EPOCH>30661</REV_AT_EPOCH><BSTAR>.6134E-3</BSTAR><MEAN_MOTION_DOT>.1595E-4</MEAN_MOTION_DOT><MEAN_MOTION_DDOT>0</MEAN_MOTION_DDOT></tleParameters></data></segment></body></omm>
<omm id="CCSDS_OMM_VERS" version="2.0">
<header><CREATION_DATE/><ORIGINATOR/></header><body><segment><metadata><OBJECT_NAME>ORBCOMM FM27 [+]</OBJECT_NAME><OBJECT_ID>1998-053G</OBJECT_ID><CENTER_NAME>EARTH</CENTER_NAME><REF_FRAME>TEME</REF_FRAME><TIME_SYSTEM>UTC</TIME_SYSTEM><MEAN_ELEMENT_THEORY>SGP4</MEAN_ELEMENT_THEORY></metadata><data><meanElements><EPOCH>2023-09-22T17:38:53.854656</EPOCH><MEAN_MOTION>14.34610534</MEAN_MOTION><ECCENTRICITY>.0001609</ECCENTRICITY><INCLINATION>45.0073</INCLINATION><RA_OF_ASC_NODE>22.2224</RA_OF_ASC_NODE><ARG_OF_PERICENTER>189.8187</ARG_OF_PERICENTER><MEAN_ANOMALY>170.2629</MEAN_ANOMALY></meanElements><tleParameters><EPHEMERIS_TYPE>0</EPHEMERIS_TYPE><CLASSIFICATION_TYPE>U</CLASSIFICATION_TYPE><NORAD_CAT_ID>25481</NORAD_CAT_ID><ELEMENT_SET_NO>999</ELEMENT_SET_NO><REV_AT_EPOCH>30660</REV_AT_EPOCH><BSTAR>.75785E-3</BSTAR><MEAN_MOTION_DOT>.202E-4</MEAN_MOTION_DOT><MEAN_MOTION_DDOT>0</MEAN_MOTION_DDOT></tleParameters></data></segment></body></omm>
<omm id="CCSDS_OMM_VERS" version="2.0">
<header><CREATION_DATE/><ORIGINATOR/></header><body><segment><metadata><OBJECT_NAME>ORBCOMM FM28 [-]</OBJECT_NAME><OBJECT_ID>1998-053H</OBJECT_ID><CENTER_NAME>EARTH</CENTER_NAME><REF_FRAME>TEME</REF_FRAME><TIME_SYSTEM>UTC</TIME_SYSTEM><MEAN_ELEMENT_THEORY>SGP4</MEAN_ELEMENT_THEORY></metadata><data><meanElements><EPOCH>2023-09-22T20:48:41.362560</EPOCH><MEAN_MOTION>14.35114924</MEAN_MOTION><ECCENTRICITY>.0003326</ECCENTRICITY><INCLINATION>45.0079</INCLINATION><RA_OF_ASC_NODE>320.8999</RA_OF_ASC_NODE><ARG_OF_PERICENTER>331.3531</ARG_OF_PERICENTER><MEAN_ANOMALY>28.7133</MEAN_ANOMALY></meanElements><tleParameters><EPHEMERIS_TYPE>0</EPHEMERIS_TYPE><CLASSIFICATION_TYPE>U</CLASSIFICATION_TYPE><NORAD_CAT_ID>25482</NORAD_CAT_ID><ELEMENT_SET_NO>999</ELEMENT_SET_NO><REV_AT_EPOCH>30728</REV_AT_EPOCH><BSTAR>.59206E-3</BSTAR><MEAN_MOTION_DOT>.1564E-4</MEAN_MOTION_DOT><MEAN_MOTION_DDOT>0</MEAN_MOTION_DDOT></tleParameters></data></segment></body></omm>
<omm id="CCSDS_OMM_VERS" version="2.0">
<header><CREATION_DATE/><ORIGINATOR/></header><body><segment><metadata><OBJECT_NAME>ORBCOMM FM30 [-]</OBJECT_NAME><OBJECT_ID>1999-065A</OBJECT_ID><CENTER_NAME>EARTH</CENTER_NAME><REF_FRAME>TEME</REF_FRAME><TIME_SYSTEM>UTC</TIME_SYSTEM><MEAN_ELEMENT_THEORY>SGP4</MEAN_ELEMENT_THEORY></metadata><data><meanElements><EPOCH>2023-09-22T15:55:29.983008</EPOCH><MEAN_MOTION>14.34355031</MEAN_MOTION><ECCENTRICITY>.0005411</ECCENTRICITY><INCLINATION>45.0318</INCLINATION><RA_OF_ASC_NODE>200.8815</RA_OF_ASC_NODE><ARG_OF_PERICENTER>63.7452</ARG_OF_PERICENTER><MEAN_ANOMALY>296.3951</MEAN_ANOMALY></meanElements><tleParameters><EPHEMERIS_TYPE>0</EPHEMERIS_TYPE><CLASSIFICATION_TYPE>U</CLASSIFICATION_TYPE><NORAD_CAT_ID>25980</NORAD_CAT_ID><ELEMENT_SET_NO>999</ELEMENT_SET_NO><REV_AT_EPOCH>24340</REV_AT_EPOCH><BSTAR>.68239E-3</BSTAR><MEAN_MOTION_DOT>.1795E-4</MEAN_MOTION_DOT><MEAN_MOTION_DDOT>0</MEAN_MOTION_DDOT></tleParameters></data></segment></body></omm>
<omm id="CCSDS_OMM_VERS" version="2.0">
<header><CREATION_DATE/><ORIGINATOR/></header><body><segment><metadata><OBJECT_NAME>ORBCOMM FM31 [-]</OBJECT_NAME><OBJECT_ID>1999-065B</OBJECT_ID><CENTER_NAME>EARTH</CENTER_NAME><REF_FRAME>TEME</REF_FRAME><TIME_SYSTEM>UTC</TIME_SYSTEM><MEAN_ELEMENT_THEORY>SGP4</MEAN_ELEMENT_THEORY></metadata><data><meanElements><EPOCH>2023-09-22T21:50:51.628992</EPOCH><MEAN_MOTION>14.34392053</MEAN_MOTION><ECCENTRICITY>.00022</ECCENTRICITY><INCLINATION>45.0232</INCLINATION><RA_OF_ASC_NODE>193.6040</RA_OF_ASC_NODE><ARG_OF_PERICENTER>77.3217</ARG_OF_PERICENTER><MEAN_ANOMALY>282.7876</MEAN_ANOMALY></meanElements><tleParameters><EPHEMERIS_TYPE>0</EPHEMERIS_TYPE><CLASSIFICATION_TYPE>U</CLASSIFICATION_TYPE><NORAD_CAT_ID>25981</NORAD_CAT_ID><ELEMENT_SET_NO>999</ELEMENT_SET_NO><REV_AT_EPOCH>24396</REV_AT_EPOCH><BSTAR>.6226E-3</BSTAR><MEAN_MOTION_DOT>.1627E-4</MEAN_MOTION_DOT><MEAN_MOTION_DDOT>0</MEAN_MOTION_DDOT></tleParameters></data></segment></body></omm>
<omm id="CCSDS_OMM_VERS" version="2.0">
<header><CREATION_DATE/><ORIGINATOR/></header><body><segment><metadata><OBJECT_NAME>ORBCOMM FM32 [+]</OBJECT_NAME><OBJECT_ID>1999-065C</OBJECT_ID><CENTER_NAME>EARTH</CENTER_NAME><REF_FRAME>TEME</REF_FRAME><TIME_SYSTEM>UTC</TIME_SYSTEM><MEAN_ELEMENT_THEORY>SGP4</MEAN_ELEMENT_THEORY></metadata><data><meanElements><EPOCH>2023-09-22T22:23:57.591744</EPOCH><MEAN_MOTION>14.33333991</MEAN_MOTION><ECCENTRICITY>.0004016</ECCENTRICITY><INCLINATION>45.0159</INCLINATION><RA_OF_ASC_NODE>205.5992</RA_OF_ASC_NODE><ARG_OF_PERICENTER>94.3709</ARG_OF_PERICENTER><MEAN_ANOMALY>265.7596</MEAN_ANOMALY></meanElements><tleParameters><EPHEMERIS_TYPE>0</EPHEMERIS_TYPE><CLASSIFICATION_TYPE>U</CLASSIFICATION_TYPE><NORAD_CAT_ID>25982</NORAD_CAT_ID><ELEMENT_SET_NO>999</ELEMENT_SET_NO><REV_AT_EPOCH>24378</REV_AT_EPOCH><BSTAR>.6353E-3</BSTAR><MEAN_MOTION_DOT>.1626E-4</MEAN_MOTION_DOT><MEAN_MOTION_DDOT>0</MEAN_MOTION_DDOT></tleParameters></data></segment></body></omm>

</ndm>
