ORBCOMM FM24 [-]        
1 25478U 98053D   23266.13559734  .00002005  00000+0  75183-3 0  9990
2 25478  45.0101  21.8492 0001906 243.1600 116.9052 14.34654387306713
ORBCOMM FM25 [-]        
1 25479U 98053E   23266.02954202  .00001899  00000+0  71481-3 0  9995
2 25479  45.0093  20.5813 0003482 292.2849  67.7628 14.34642589306711
ORBCOMM FM26 [-]        
1 25480U 98053F   23265.67987467  .00001595  00000+0  61340-3 0  9992
2 25480  45.0093  15.5050 0004874 324.8821  35.1704 14.34230223306619
ORBCOMM FM27 [+]        
1 25481U 98053G   23265.73534554  .00002020  00000+0  75785-3 0  9997
2 25481  45.0073  22.2224 0001609 189.8187 170.2629 14.34610534306606
ORBCOMM FM28 [-]        
1 25482U 98053H   23265.86714540  .00001564  00000+0  59206-3 0  9999
2 25482  45.0079 320.8999 0003326 331.3531  28.7133 14.35114924307289
ORBCOMM FM30 [-]        
1 25980U 99065A   23265.66354147  .00001795  00000+0  68239-3 0  9999
2 25980  45.0318 200.8815 0005411  63.7452 296.3951 14.34355031243406
ORBCOMM FM31 [-]        
1 25981U 99065B   23265.91031978  .00001627  00000+0  62260-3 0  9994
2 25981  45.0232 193.6040 0002200  77.3217 282.7876 14.34392053243965
ORBCOMM FM32 [+]        
1 25982U 99065C   23265.93330546  .00001626  00000+0  63530-3 0  9990
2 25982  45.0159 205.5992 0004016  94.3709 265.7596 14.33333991243780
